[{"OBJECT_NAME":"ONEWEB-0518","OBJECT_ID":"2022-138Z","EPOCH":"2026-03-09T23:27:15.772896","MEAN_MOTION":13.19723536,"ECCENTRICITY":0.00017182,"INCLINATION":87.9227,"RA_OF_ASC_NODE":324.7448,"ARG_OF_PERICENTER":86.1675,"MEAN_ANOMALY":273.9654,"EPHEMERIS_TYPE":0,"CLASSIFICATION_TYPE":"U","NORAD_CAT_ID":54136,"ELEMENT_SET_NO":999,"REV_AT_EPOCH":16374,"BSTAR":-6.305209e-6,"MEAN_MOTION_DOT":1.0e-7,"MEAN_MOTION_DDOT":0},{"OBJECT_NAME":"FENGYUN 1C DEB","OBJECT_ID":"1999-025RP","EPOCH":"2026-03-09T19:24:09.713664","MEAN_MOTION":13.56282391,"ECCENTRICITY":0.02690192,"INCLINATION":98.9051,"RA_OF_ASC_NODE":174.3965,"ARG_OF_PERICENTER":128.6168,"MEAN_ANOMALY":233.9391,"EPHEMERIS_TYPE":0,"CLASSIFICATION_TYPE":"U","NORAD_CAT_ID":30110,"ELEMENT_SET_NO":999,"REV_AT_EPOCH":94695,"BSTAR":0.00034560876,"MEAN_MOTION_DOT":2.7e-6,"MEAN_MOTION_DDOT":0}]
